{"type":"FeatureCollection","features":[{"type":"Feature","properties":{"shape":"023R-18-North","route":"023R","name":"Valley Line","color":"#008000","dir":"0"},"geometry":{"type":"LineString","coordinates":[[-113.43067,53.45841],[-113.4314,53.45828],[-113.43329,53.45823],[-113.43377,53.45837],[-113.43399,53.45858],[-113.43406,53.46066],[-113.43441,53.46234],[-113.43482,53.46344],[-113.43843,53.47139],[-113.43882,53.47296],[-113.439,53.47542],[-113.43915,53.47612],[-113.43941,53.47659],[-113.43974,53.47698],[-113.44121,53.4782],[-113.44171,53.47869],[-113.44205,53.47915],[-113.44235,53.47976],[-113.44248,53.48039],[-113.44248,53.48243],[-113.44218,53.48596],[-113.44241,53.48958],[-113.44238,53.49803],[-113.44248,53.4984],[-113.44369,53.49947],[-113.44596,53.5013],[-113.44642,53.50147],[-113.44705,53.50153],[-113.44909,53.50134],[-113.4497,53.50142],[-113.45017,53.50157],[-113.45419,53.50416],[-113.45472,53.50466],[-113.45498,53.50513],[-113.45506,53.5055],[-113.4551,53.50922],[-113.45512,53.51727],[-113.45518,53.51761],[-113.45544,53.51832],[-113.45547,53.51859],[-113.4553,53.52284],[-113.45537,53.52312],[-113.45556,53.52347],[-113.45703,53.52506],[-113.45737,53.52578],[-113.45745,53.5303],[-113.45737,53.53135],[-113.45742,53.53157],[-113.45771,53.53175],[-113.45805,53.53178],[-113.47076,53.53172],[-113.47138,53.53184],[-113.47334,53.53257],[-113.4748,53.53291],[-113.47668,53.5331],[-113.47981,53.53312],[-113.48035,53.53322],[-113.48078,53.53342],[-113.4811,53.53369],[-113.48126,53.53411],[-113.48099,53.53537],[-113.4809,53.53559],[-113.48049,53.53593],[-113.47786,53.53733],[-113.47741,53.53776],[-113.47716,53.53833],[-113.47711,53.54176],[-113.47719,53.54228],[-113.47844,53.54459],[-113.47871,53.54487],[-113.47907,53.54503],[-113.47977,53.54511],[-113.4829,53.54458],[-113.48351,53.54455],[-113.4842,53.54436],[-113.48845,53.54356],[-113.49544,53.54309]]}},{"type":"Feature","properties":{"shape":"021R-69-South","route":"021R","name":"Capital Line","color":"#0081BC","dir":"1"},"geometry":{"type":"LineString","coordinates":[[-113.41175,53.60155],[-113.42216,53.59514],[-113.4247,53.59348],[-113.43473,53.58718],[-113.43566,53.58655],[-113.43715,53.58541],[-113.43896,53.58421],[-113.44029,53.5835],[-113.44189,53.58278],[-113.44789,53.57913],[-113.44996,53.57775],[-113.45247,53.57587],[-113.48158,53.5504],[-113.48258,53.54975],[-113.48311,53.5495],[-113.48455,53.54899],[-113.48551,53.54851],[-113.48878,53.54606],[-113.48913,53.54555],[-113.4892,53.54512],[-113.48877,53.54258],[-113.48882,53.54229],[-113.48895,53.54205],[-113.48929,53.54168],[-113.48957,53.54149],[-113.4902,53.54124],[-113.49081,53.54112],[-113.49161,53.54107],[-113.49913,53.54092],[-113.50669,53.54094],[-113.50781,53.54073],[-113.50837,53.5405],[-113.50963,53.53965],[-113.50997,53.53934],[-113.5102,53.53898],[-113.51029,53.53859],[-113.51031,53.53394],[-113.51039,53.53351],[-113.5105,53.53314],[-113.51085,53.53245],[-113.5126,53.52946],[-113.51311,53.52881],[-113.51401,53.52811],[-113.51549,53.52737],[-113.51768,53.52639],[-113.51963,53.52568],[-113.52392999999999,53.52435],[-113.5245,53.52411],[-113.52503,53.52378],[-113.52563,53.52315],[-113.52586,53.52251],[-113.52583,53.51819],[-113.52611,53.51671],[-113.52616,53.51608],[-113.52611,53.50992],[-113.52574,53.5089],[-113.5257,53.50853],[-113.5258,53.50814],[-113.52611,53.50768],[-113.52642,53.50742],[-113.52801,53.50639],[-113.52825,53.50612],[-113.52844,53.50574],[-113.5285,53.50538],[-113.5285,53.5041],[-113.52843,53.49947],[-113.52828,53.49906],[-113.52798,53.49871],[-113.52737,53.49833],[-113.52697,53.49817],[-113.52607,53.49799],[-113.51963,53.49777],[-113.51887,53.49769],[-113.51794,53.4974],[-113.51743,53.49711],[-113.51696,53.49664],[-113.51681,53.49635],[-113.51672,53.49556],[-113.51669,53.49369],[-113.51678,53.48426],[-113.51673,53.48381],[-113.51622,53.48172],[-113.51619,53.48136],[-113.51641,53.47968],[-113.5164,53.47207],[-113.51631,53.46512],[-113.51637,53.46266],[-113.51634,53.45722]]}},{"type":"Feature","properties":{"shape":"022R-38-North","route":"022R","name":"Metro Line","color":"#FF0000","dir":"0"},"geometry":{"type":"LineString","coordinates":[[-113.51634,53.45722],[-113.51637,53.46266],[-113.51631,53.46512],[-113.5164,53.47207],[-113.51641,53.47968],[-113.51619,53.48136],[-113.51622,53.48172],[-113.51673,53.48381],[-113.51678,53.48426],[-113.51672,53.48576],[-113.51678,53.48536],[-113.51669,53.49369],[-113.51672,53.49556],[-113.51681,53.49635],[-113.51696,53.49664],[-113.51743,53.49711],[-113.51794,53.4974],[-113.51887,53.49769],[-113.51963,53.49777],[-113.52607,53.49799],[-113.52697,53.49817],[-113.52737,53.49833],[-113.52798,53.49871],[-113.52828,53.49906],[-113.52843,53.49947],[-113.52841,53.50294],[-113.5285,53.5041],[-113.5285,53.50538],[-113.52844,53.50574],[-113.52825,53.50612],[-113.52801,53.50639],[-113.52642,53.50742],[-113.52611,53.50768],[-113.5258,53.50814],[-113.5257,53.50853],[-113.52574,53.5089],[-113.52611,53.50992],[-113.52611,53.51301],[-113.52616,53.51301],[-113.52613,53.51656],[-113.52583,53.51819],[-113.52587,53.52233],[-113.52581,53.52273],[-113.52563,53.52315],[-113.52531,53.52354],[-113.5245,53.52411],[-113.52226,53.52494],[-113.52118,53.5252],[-113.51963,53.52568],[-113.51768,53.52639],[-113.51549,53.52737],[-113.51401,53.52811],[-113.51311,53.52881],[-113.5126,53.52946],[-113.51085,53.53245],[-113.5105,53.53314],[-113.51039,53.53351],[-113.51031,53.53394],[-113.51029,53.53565],[-113.5102,53.5363],[-113.51029,53.53674],[-113.51029,53.53859],[-113.5102,53.53898],[-113.50997,53.53934],[-113.50963,53.53965],[-113.50837,53.5405],[-113.5075,53.54081],[-113.50461,53.54092],[-113.494,53.54092],[-113.49081,53.54112],[-113.48981,53.54138],[-113.48929,53.54168],[-113.48895,53.54205],[-113.48882,53.54229],[-113.48877,53.54258],[-113.48943,53.54609],[-113.48988,53.54678],[-113.4906,53.54732],[-113.49147,53.54761],[-113.4922,53.5477],[-113.4969,53.54764],[-113.49989,53.54782],[-113.50042,53.54794],[-113.50092,53.54826],[-113.50109,53.54866],[-113.50106,53.55238],[-113.50079,53.55282],[-113.49953,53.5536],[-113.49924,53.554],[-113.4992,53.55615],[-113.49929,53.5565],[-113.49957,53.55687],[-113.49995,53.55714],[-113.50217,53.55835],[-113.50241,53.55853],[-113.50271,53.55897],[-113.50277,53.56037],[-113.50317,53.56205],[-113.50318,53.56441],[-113.50312,53.56492],[-113.50317,53.56526],[-113.50353,53.56566],[-113.50424,53.56593],[-113.50671,53.56598],[-113.50756,53.56606],[-113.50798,53.5662],[-113.5084,53.56644],[-113.50963,53.5673]]}}]}